{
  "norad_id": 52846,
  "name": "STARLINK-4212",
  "history": [
    {
      "epoch": "2026-03-28T20:50:54.717504Z",
      "apogee_km": 540.6483629808545,
      "perigee_km": 538.8325585049597,
      "latitude_deg": -3.596791354606846e-05,
      "longitude_deg": 169.0211289320632,
      "height_km": 540.7461228192203,
      "semi_major_axis_km": 6917.877460742907,
      "eccentricity": 0.00013124,
      "inclination_deg": 53.2175,
      "raan_deg": 308.0321,
      "arg_perigee_deg": 96.9502,
      "mean_anomaly_deg": 263.1639,
      "mean_motion_rev_day": 15.08840958
    },
    {
      "epoch": "2026-03-29T00:01:40.866816Z",
      "apogee_km": 540.6581475289586,
      "perigee_km": 538.8138425884763,
      "latitude_deg": 9.933284602040839e-06,
      "longitude_deg": 120.60349736296011,
      "height_km": 540.7390210639114,
      "semi_major_axis_km": 6917.872995058718,
      "eccentricity": 0.0001333,
      "inclination_deg": 53.2176,
      "raan_deg": 307.4373,
      "arg_perigee_deg": 96.6789,
      "mean_anomaly_deg": 263.4355,
      "mean_motion_rev_day": 15.08842419
    },
    {
      "epoch": "2026-03-29T23:52:27.754752Z",
      "apogee_km": 540.691083252289,
      "perigee_km": 538.7679163653429,
      "latitude_deg": -7.356456967031274e-06,
      "longitude_deg": 117.46848349859098,
      "height_km": 540.688311773417,
      "semi_major_axis_km": 6917.866499808816,
      "eccentricity": 0.000139,
      "inclination_deg": 53.2176,
      "raan_deg": 302.977,
      "arg_perigee_deg": 93.7637,
      "mean_anomaly_deg": 266.3514,
      "mean_motion_rev_day": 15.08844544
    },
    {
      "epoch": "2026-03-29T23:52:27.755616Z",
      "apogee_km": 540.6912216096198,
      "perigee_km": 538.767778008013,
      "latitude_deg": -9.202940944235406e-06,
      "longitude_deg": 117.46847851584737,
      "height_km": 540.6883208558701,
      "semi_major_axis_km": 6917.866499808816,
      "eccentricity": 0.00013902,
      "inclination_deg": 53.2176,
      "raan_deg": 302.977,
      "arg_perigee_deg": 93.7637,
      "mean_anomaly_deg": 266.3514,
      "mean_motion_rev_day": 15.08844544
    },
    {
      "epoch": "2026-03-30T14:10:56.114400Z",
      "apogee_km": 540.7048720912944,
      "perigee_km": 538.7800413112609,
      "latitude_deg": 1.0609898906331489e-05,
      "longitude_deg": -100.41437131407893,
      "height_km": 540.7281549396384,
      "semi_major_axis_km": 6917.879456701277,
      "eccentricity": 0.00013912,
      "inclination_deg": 53.2169,
      "raan_deg": 300.2999,
      "arg_perigee_deg": 95.3708,
      "mean_anomaly_deg": 264.7443,
      "mean_motion_rev_day": 15.08840305
    }
  ]
}